{
    "links": {
        "self": "http://www.neowsapp.com/rest/v1/neo/3648000?api_key=iIulBulltgU6a56xZRHN4H3l9WmuAYTsLGpBGhQ2"
    },
    "id": "3648000",
    "neo_reference_id": "3648000",
    "name": "(2013 RQ43)",
    "designation": "2013 RQ43",
    "nasa_jpl_url": "http://ssd.jpl.nasa.gov/sbdb.cgi?sstr=3648000",
    "absolute_magnitude_h": 23.8,
    "estimated_diameter": {
        "kilometers": {
            "estimated_diameter_min": 0.046190746,
            "estimated_diameter_max": 0.1032856481
        },
        "meters": {
            "estimated_diameter_min": 46.1907460282,
            "estimated_diameter_max": 103.2856480504
        },
        "miles": {
            "estimated_diameter_min": 0.0287015901,
            "estimated_diameter_max": 0.0641787064
        },
        "feet": {
            "estimated_diameter_min": 151.544447199,
            "estimated_diameter_max": 338.8636855496
        }
    },
    "is_potentially_hazardous_asteroid": false,
    "close_approach_data": [
        {
            "close_approach_date": "2013-09-13",
            "close_approach_date_full": "2013-Sep-13 02:50",
            "epoch_date_close_approach": 1379040600000,
            "relative_velocity": {
                "kilometers_per_second": "7.4576787155",
                "kilometers_per_hour": "26847.6433757888",
                "miles_per_hour": "16682.081518695"
            },
            "miss_distance": {
                "astronomical": "0.1049236203",
                "lunar": "40.8152882967",
                "kilometers": "15696350.109568761",
                "miles": "9753259.6934244618"
            },
            "orbiting_body": "Earth"
        }
    ],
    "orbital_data": {
        "orbit_id": "6",
        "orbit_determination_date": "2017-04-06 08:44:44",
        "first_observation_date": "2013-09-12",
        "last_observation_date": "2013-09-13",
        "data_arc_in_days": 1,
        "observations_used": 17,
        "orbit_uncertainty": "9",
        "minimum_orbit_intersection": ".0971704",
        "jupiter_tisserand_invariant": "4.600",
        "epoch_osculation": "2456548.5",
        "eccentricity": ".238046685935003",
        "semi_major_axis": "1.443176545524113",
        "inclination": "13.57354282745576",
        "ascending_node_longitude": "167.9026913764015",
        "orbital_period": "633.2535309337987",
        "perihelion_distance": "1.099633151642972",
        "perihelion_argument": "192.3850707216661",
        "aphelion_distance": "1.786719939405254",
        "perihelion_time": "2456561.269468347233",
        "mean_anomaly": "352.7406506549989",
        "mean_motion": ".568492684863742",
        "equinox": "J2000",
        "orbit_class": {
            "orbit_class_type": "AMO",
            "orbit_class_description": "Near-Earth asteroid orbits similar to that of 1221 Amor",
            "orbit_class_range": "1.017 AU < q (perihelion) < 1.3 AU"
        }
    },
    "is_sentry_object": false
}